start=new Date('2022-12-20T00:00:00.000Z').valueOf();
sats=[{"TLE_LINE1":"1 50162U 21125G   22353.69673861  .00028594  00000-0  49174-3 0  9992","SITE":"AFWTR","INCLINATION":"53.2166","ELEMENT_SET_NO":"999","RCS_SIZE":"LARGE","OBJECT_NAME":"STARLINK-3303","MEAN_ELEMENT_THEORY":"SGP4","PERIOD":"92.849","OBJECT_TYPE":"PAYLOAD","BSTAR":"0.00049174000000","ARG_OF_PERICENTER":"70.3427","EPOCH":"2022-12-19T16:43:18.215904","APOAPSIS":"416.789","NORAD_CAT_ID":"50162","TIME_SYSTEM":"UTC","REF_FRAME":"TEME","MEAN_MOTION_DDOT":"0.0000000000000","RA_OF_ASC_NODE":"351.2833","LAUNCH_DATE":"2021-12-18","REV_AT_EPOCH":"6102","CENTER_NAME":"EARTH","DECAY_DATE":null,"ECCENTRICITY":"0.00039960","GP_ID":"220969854","FILE":"3711774","MEAN_MOTION":"15.50908342","PERIAPSIS":"411.361","MEAN_MOTION_DOT":"0.00028594","CLASSIFICATION_TYPE":"U","TLE_LINE2":"2 50162  53.2166 351.2833 0003996  70.3427 289.8014 15.50908342 61022","MEAN_ANOMALY":"289.8014","COUNTRY_CODE":"US","EPHEMERIS_TYPE":"0","SEMIMAJOR_AXIS":"6792.210","OBJECT_ID":"2021-125G"},{"DECAY_DATE":null,"ECCENTRICITY":"0.00026770","MEAN_MOTION":"15.08845501","GP_ID":"220968107","FILE":"3711774","PERIAPSIS":"537.877","MEAN_MOTION_DOT":"0.00002117","CLASSIFICATION_TYPE":"U","TLE_LINE2":"2 50163  53.2175 118.2090 0002677  49.8941 310.2285 15.08845501 59202","COUNTRY_CODE":"US","MEAN_ANOMALY":"310.2285","EPHEMERIS_TYPE":"0","SEMIMAJOR_AXIS":"6917.864","OBJECT_ID":"2021-125H","TIME_SYSTEM":"UTC","REF_FRAME":"TEME","MEAN_MOTION_DDOT":"0.0000000000000","RA_OF_ASC_NODE":"118.2090","LAUNCH_DATE":"2021-12-18","REV_AT_EPOCH":"5920","CENTER_NAME":"EARTH","BSTAR":"0.00015109000000","OBJECT_TYPE":"PAYLOAD","ARG_OF_PERICENTER":"49.8941","EPOCH":"2022-12-19T17:31:01.795296","APOAPSIS":"541.580","NORAD_CAT_ID":"50163","TLE_LINE1":"1 50163U 21125H   22353.72988189  .00002117  00000-0  15109-3 0  9993","SITE":"AFWTR","INCLINATION":"53.2175","ELEMENT_SET_NO":"999","RCS_SIZE":"LARGE","MEAN_ELEMENT_THEORY":"SGP4","OBJECT_NAME":"STARLINK-3306","PERIOD":"95.437"},{"ELEMENT_SET_NO":"999","RCS_SIZE":"LARGE","MEAN_ELEMENT_THEORY":"SGP4","OBJECT_NAME":"STARLINK-3298","PERIOD":"95.437","INCLINATION":"53.2159","TLE_LINE1":"1 50165U 21125K   22353.79700163  .00001576  00000-0  11707-3 0  9994","SITE":"AFWTR","ARG_OF_PERICENTER":"49.6637","EPOCH":"2022-12-19T19:07:40.940832","NORAD_CAT_ID":"50165","APOAPSIS":"541.663","OBJECT_TYPE":"PAYLOAD","BSTAR":"0.00011707000000","REV_AT_EPOCH":"5898","CENTER_NAME":"EARTH","RA_OF_ASC_NODE":"137.9229","MEAN_MOTION_DDOT":"0.0000000000000","REF_FRAME":"TEME","LAUNCH_DATE":"2021-12-18","TIME_SYSTEM":"UTC","EPHEMERIS_TYPE":"0","SEMIMAJOR_AXIS":"6917.858","OBJECT_ID":"2021-125K","TLE_LINE2":"2 50165  53.2159 137.9229 0002805  49.6637 310.4600 15.08847453 58986","MEAN_ANOMALY":"310.4600","COUNTRY_CODE":"US","MEAN_MOTION":"15.08847453","GP_ID":"220968357","FILE":"3711774","PERIAPSIS":"537.782","MEAN_MOTION_DOT":"0.00001576","CLASSIFICATION_TYPE":"U","DECAY_DATE":null,"ECCENTRICITY":"0.00028050"},{"RCS_SIZE":"LARGE","ELEMENT_SET_NO":"999","PERIOD":"95.438","OBJECT_NAME":"STARLINK-3305","MEAN_ELEMENT_THEORY":"SGP4","INCLINATION":"53.2175","TLE_LINE1":"1 50166U 21125L   22353.75376571  .00001288  00000-0  99076-4 0  9999","SITE":"AFWTR","EPOCH":"2022-12-19T18:05:25.357344","ARG_OF_PERICENTER":"54.4111","NORAD_CAT_ID":"50166","APOAPSIS":"541.955","BSTAR":"0.00009907600000","OBJECT_TYPE":"PAYLOAD","REV_AT_EPOCH":"5598","CENTER_NAME":"EARTH","MEAN_MOTION_DDOT":"0.0000000000000","REF_FRAME":"TEME","RA_OF_ASC_NODE":"128.1046","LAUNCH_DATE":"2021-12-18","TIME_SYSTEM":"UTC","EPHEMERIS_TYPE":"0","OBJECT_ID":"2021-125L","SEMIMAJOR_AXIS":"6917.899","MEAN_ANOMALY":"305.7175","COUNTRY_CODE":"US","TLE_LINE2":"2 50166  53.2175 128.1046 0003167  54.4111 305.7175 15.08833856 55980","MEAN_MOTION_DOT":"0.00001288","MEAN_MOTION":"15.08833856","GP_ID":"220978608","FILE":"3712059","PERIAPSIS":"537.573","CLASSIFICATION_TYPE":"U","DECAY_DATE":null,"ECCENTRICITY":"0.00031670"},{"OBJECT_TYPE":"PAYLOAD","BSTAR":"0.00025601000000","EPOCH":"2022-12-19T18:57:04.813920","ARG_OF_PERICENTER":"48.8666","APOAPSIS":"541.365","NORAD_CAT_ID":"50167","RCS_SIZE":"LARGE","ELEMENT_SET_NO":"999","PERIOD":"95.437","OBJECT_NAME":"STARLINK-3271","MEAN_ELEMENT_THEORY":"SGP4","TLE_LINE1":"1 50167U 21125M   22353.78963905  .00003790  00000-0  25601-3 0  9998","SITE":"AFWTR","INCLINATION":"53.2140","COUNTRY_CODE":"US","MEAN_ANOMALY":"311.2531","TLE_LINE2":"2 50167  53.2140 137.9469 0002381  48.8666 311.2531 15.08849084 58452","EPHEMERIS_TYPE":"0","OBJECT_ID":"2021-125M","SEMIMAJOR_AXIS":"6917.853","DECAY_DATE":null,"ECCENTRICITY":"0.00023810","MEAN_MOTION_DOT":"0.00003790","MEAN_MOTION":"15.08849084","GP_ID":"220978623","FILE":"3712060","PERIAPSIS":"538.070","CLASSIFICATION_TYPE":"U","REF_FRAME":"TEME","MEAN_MOTION_DDOT":"0.0000000000000","RA_OF_ASC_NODE":"137.9469","LAUNCH_DATE":"2021-12-18","REV_AT_EPOCH":"5845","CENTER_NAME":"EARTH","TIME_SYSTEM":"UTC"},{"RCS_SIZE":"LARGE","ELEMENT_SET_NO":"999","PERIOD":"95.438","OBJECT_NAME":"STARLINK-3296","MEAN_ELEMENT_THEORY":"SGP4","TLE_LINE1":"1 50168U 21125N   22353.68383876  .00004527  00000-0  30233-3 0  9997","SITE":"AFWTR","INCLINATION":"53.2173","OBJECT_TYPE":"PAYLOAD","BSTAR":"0.00030233000000","EPOCH":"2022-12-19T16:24:43.668864","ARG_OF_PERICENTER":"57.1711","NORAD_CAT_ID":"50168","APOAPSIS":"541.978","RA_OF_ASC_NODE":"128.4193","MEAN_MOTION_DDOT":"0.0000000000000","REF_FRAME":"TEME","LAUNCH_DATE":"2021-12-18","CENTER_NAME":"EARTH","REV_AT_EPOCH":"5596","TIME_SYSTEM":"UTC","COUNTRY_CODE":"US","MEAN_ANOMALY":"302.9591","TLE_LINE2":"2 50168  53.2173 128.4193 0003226  57.1711 302.9591 15.08839845 55961","EPHEMERIS_TYPE":"0","OBJECT_ID":"2021-125N","SEMIMAJOR_AXIS":"6917.881","DECAY_DATE":null,"ECCENTRICITY":"0.00032260","MEAN_MOTION_DOT":"0.00004527","MEAN_MOTION":"15.08839845","GP_ID":"220978635","FILE":"3712060","PERIAPSIS":"537.514","CLASSIFICATION_TYPE":"U"},{"NORAD_CAT_ID":"50169","APOAPSIS":"541.821","ARG_OF_PERICENTER":"41.1417","EPOCH":"2022-12-19T20:28:29.237952","BSTAR":"0.00030530000000","OBJECT_TYPE":"PAYLOAD","INCLINATION":"53.2145","TLE_LINE1":"1 50169U 21125P   22353.85311618  .00004576  00000-0  30530-3 0  9996","SITE":"AFWTR","MEAN_ELEMENT_THEORY":"SGP4","OBJECT_NAME":"STARLINK-3301","PERIOD":"95.436","ELEMENT_SET_NO":"999","RCS_SIZE":"LARGE","CLASSIFICATION_TYPE":"U","GP_ID":"220978633","FILE":"3712060","PERIAPSIS":"537.561","MEAN_MOTION":"15.08857792","MEAN_MOTION_DOT":"0.00004576","ECCENTRICITY":"0.00030790","DECAY_DATE":null,"SEMIMAJOR_AXIS":"6917.826","OBJECT_ID":"2021-125P","EPHEMERIS_TYPE":"0","TLE_LINE2":"2 50169  53.2145 127.6551 0003079  41.1417 318.9807 15.08857792 56006","COUNTRY_CODE":"US","MEAN_ANOMALY":"318.9807","TIME_SYSTEM":"UTC","REV_AT_EPOCH":"5600","CENTER_NAME":"EARTH","LAUNCH_DATE":"2021-12-18","RA_OF_ASC_NODE":"127.6551","MEAN_MOTION_DDOT":"0.0000000000000","REF_FRAME":"TEME"},{"EPOCH":"2022-12-19T16:14:08.634912","ARG_OF_PERICENTER":"51.6492","APOAPSIS":"542.152","NORAD_CAT_ID":"50170","BSTAR":"0.00011547000000","OBJECT_TYPE":"PAYLOAD","RCS_SIZE":"LARGE","ELEMENT_SET_NO":"999","PERIOD":"95.438","OBJECT_NAME":"STARLINK-3245","MEAN_ELEMENT_THEORY":"SGP4","INCLINATION":"53.2181","TLE_LINE1":"1 50170U 21125Q   22353.67648883  .00001549  00000-0  11547-3 0  9999","SITE":"AFWTR","EPHEMERIS_TYPE":"0","OBJECT_ID":"2021-125Q","SEMIMAJOR_AXIS":"6917.891","COUNTRY_CODE":"US","MEAN_ANOMALY":"308.4811","TLE_LINE2":"2 50170  53.2181 128.4623 0003464  51.6492 308.4811 15.08836543 59052","MEAN_MOTION_DOT":"0.00001549","GP_ID":"220969108","FILE":"3711774","MEAN_MOTION":"15.08836543","PERIAPSIS":"537.360","CLASSIFICATION_TYPE":"U","DECAY_DATE":null,"ECCENTRICITY":"0.00034640","REV_AT_EPOCH":"5905","CENTER_NAME":"EARTH","MEAN_MOTION_DDOT":"0.0000000000000","REF_FRAME":"TEME","RA_OF_ASC_NODE":"128.4623","LAUNCH_DATE":"2021-12-18","TIME_SYSTEM":"UTC"},{"MEAN_MOTION_DDOT":"0.0000000000000","REF_FRAME":"TEME","RA_OF_ASC_NODE":"127.7975","LAUNCH_DATE":"2021-12-18","REV_AT_EPOCH":"5859","CENTER_NAME":"EARTH","TIME_SYSTEM":"UTC","TLE_LINE2":"2 50171  53.2164 127.7975 0002872  44.6712 315.4511 15.08867275 58594","COUNTRY_CODE":"US","MEAN_ANOMALY":"315.4511","EPHEMERIS_TYPE":"0","SEMIMAJOR_AXIS":"6917.797","OBJECT_ID":"2021-125R","DECAY_DATE":null,"ECCENTRICITY":"0.00028720","GP_ID":"220978163","FILE":"3712060","MEAN_MOTION":"15.08867275","PERIAPSIS":"537.675","MEAN_MOTION_DOT":"0.00004684","CLASSIFICATION_TYPE":"U","ELEMENT_SET_NO":"999","RCS_SIZE":"LARGE","OBJECT_NAME":"STARLINK-3286","MEAN_ELEMENT_THEORY":"SGP4","PERIOD":"95.436","TLE_LINE1":"1 50171U 21125R   22353.82365755  .00004684  00000-0  31195-3 0  9995","SITE":"AFWTR","INCLINATION":"53.2164","BSTAR":"0.00031195000000","OBJECT_TYPE":"PAYLOAD","ARG_OF_PERICENTER":"44.6712","EPOCH":"2022-12-19T19:46:04.012320","NORAD_CAT_ID":"50171","APOAPSIS":"541.649"},{"ARG_OF_PERICENTER":"48.8739","EPOCH":"2022-12-19T19:14:17.777760","NORAD_CAT_ID":"50172","APOAPSIS":"541.587","OBJECT_TYPE":"PAYLOAD","BSTAR":"0.00030370000000","ELEMENT_SET_NO":"999","RCS_SIZE":"LARGE","MEAN_ELEMENT_THEORY":"SGP4","OBJECT_NAME":"STARLINK-3287","PERIOD":"95.437","INCLINATION":"53.2161","TLE_LINE1":"1 50172U 21125S   22353.80159465  .00004550  00000-0  30370-3 0  9999","SITE":"AFWTR","EPHEMERIS_TYPE":"0","SEMIMAJOR_AXIS":"6917.846","OBJECT_ID":"2021-125S","TLE_LINE2":"2 50172  53.2161 127.8993 0002713  48.8739 311.2487 15.08851362 58598","COUNTRY_CODE":"US","MEAN_ANOMALY":"311.2487","GP_ID":"220978631","FILE":"3712060","MEAN_MOTION":"15.08851362","PERIAPSIS":"537.834","MEAN_MOTION_DOT":"0.00004550","CLASSIFICATION_TYPE":"U","DECAY_DATE":null,"ECCENTRICITY":"0.00027130","REV_AT_EPOCH":"5859","CENTER_NAME":"EARTH","MEAN_MOTION_DDOT":"0.0000000000000","RA_OF_ASC_NODE":"127.8993","REF_FRAME":"TEME","LAUNCH_DATE":"2021-12-18","TIME_SYSTEM":"UTC"}];
